[{"OBJECT_NAME":"CUTE-1 (CO-55)","OBJECT_ID":"2003-031E","EPOCH":"2026-03-06T23:08:53.575872","MEAN_MOTION":14.24263294,"ECCENTRICITY":0.0010585,"INCLINATION":98.678,"RA_OF_ASC_NODE":75.7971,"ARG_OF_PERICENTER":119.5034,"MEAN_ANOMALY":240.7202,"EPHEMERIS_TYPE":0,"CLASSIFICATION_TYPE":"U","NORAD_CAT_ID":27844,"ELEMENT_SET_NO":999,"REV_AT_EPOCH":17712,"BSTAR":0.00020017,"MEAN_MOTION_DOT":4.18e-6,"MEAN_MOTION_DDOT":0},{"OBJECT_NAME":"CUBESAT XI-IV (CO-57)","OBJECT_ID":"2003-031J","EPOCH":"2026-03-06T23:20:06.708768","MEAN_MOTION":14.23558791,"ECCENTRICITY":0.001027,"INCLINATION":98.6809,"RA_OF_ASC_NODE":75.5995,"ARG_OF_PERICENTER":135.9414,"MEAN_ANOMALY":224.2584,"EPHEMERIS_TYPE":0,"CLASSIFICATION_TYPE":"U","NORAD_CAT_ID":27848,"ELEMENT_SET_NO":999,"REV_AT_EPOCH":17683,"BSTAR":0.00016835,"MEAN_MOTION_DOT":3.4e-6,"MEAN_MOTION_DDOT":0},{"OBJECT_NAME":"CUBESAT XI-V","OBJECT_ID":"2005-043F","EPOCH":"2026-03-06T09:15:30.084768","MEAN_MOTION":14.72302296,"ECCENTRICITY":0.00145559,"INCLINATION":98.2825,"RA_OF_ASC_NODE":218.9473,"ARG_OF_PERICENTER":167.7954,"MEAN_ANOMALY":192.3608,"EPHEMERIS_TYPE":0,"CLASSIFICATION_TYPE":"U","NORAD_CAT_ID":28895,"ELEMENT_SET_NO":999,"REV_AT_EPOCH":8662,"BSTAR":0.00045496352,"MEAN_MOTION_DOT":2.828e-5,"MEAN_MOTION_DDOT":0},{"OBJECT_NAME":"CUTE-1.7+APD II (CO-65)","OBJECT_ID":"2008-021C","EPOCH":"2026-03-07T03:01:54.313248","MEAN_MOTION":15.08327512,"ECCENTRICITY":0.0009989,"INCLINATION":97.821,"RA_OF_ASC_NODE":45.5519,"ARG_OF_PERICENTER":28.1207,"MEAN_ANOMALY":332.0559,"EPHEMERIS_TYPE":0,"CLASSIFICATION_TYPE":"U","NORAD_CAT_ID":32785,"ELEMENT_SET_NO":999,"REV_AT_EPOCH":96980,"BSTAR":0.00051229,"MEAN_MOTION_DOT":7.898e-5,"MEAN_MOTION_DDOT":0},{"OBJECT_NAME":"CANX-2","OBJECT_ID":"2008-021H","EPOCH":"2026-03-07T04:19:34.838976","MEAN_MOTION":15.0476194,"ECCENTRICITY":0.0011782,"INCLINATION":97.8566,"RA_OF_ASC_NODE":44.09,"ARG_OF_PERICENTER":37.9204,"MEAN_ANOMALY":322.2849,"EPHEMERIS_TYPE":0,"CLASSIFICATION_TYPE":"U","NORAD_CAT_ID":32790,"ELEMENT_SET_NO":999,"REV_AT_EPOCH":96946,"BSTAR":0.00040307,"MEAN_MOTION_DOT":5.628e-5,"MEAN_MOTION_DDOT":0},{"OBJECT_NAME":"SEEDS II (CO-66)","OBJECT_ID":"2008-021J","EPOCH":"2026-03-06T21:51:24.933600","MEAN_MOTION":15.28931054,"ECCENTRICITY":0.0001927,"INCLINATION":97.7521,"RA_OF_ASC_NODE":59.2254,"ARG_OF_PERICENTER":8.7916,"MEAN_ANOMALY":351.3357,"EPHEMERIS_TYPE":0,"CLASSIFICATION_TYPE":"U","NORAD_CAT_ID":32791,"ELEMENT_SET_NO":999,"REV_AT_EPOCH":97164,"BSTAR":0.00086086,"MEAN_MOTION_DOT":0.00024166,"MEAN_MOTION_DDOT":0},{"OBJECT_NAME":"SWISSCUBE","OBJECT_ID":"2009-051B","EPOCH":"2026-03-06T04:37:51.918528","MEAN_MOTION":14.622483,"ECCENTRICITY":0.00068415,"INCLINATION":98.4101,"RA_OF_ASC_NODE":331.2738,"ARG_OF_PERICENTER":163.0927,"MEAN_ANOMALY":197.0503,"EPHEMERIS_TYPE":0,"CLASSIFICATION_TYPE":"U","NORAD_CAT_ID":35932,"ELEMENT_SET_NO":999,"REV_AT_EPOCH":87410,"BSTAR":0.00035868977,"MEAN_MOTION_DOT":1.759e-5,"MEAN_MOTION_DDOT":0},{"OBJECT_NAME":"BEESAT-1","OBJECT_ID":"2009-051C","EPOCH":"2026-03-06T23:18:58.597920","MEAN_MOTION":14.61524816,"ECCENTRICITY":0.0005127,"INCLINATION":98.403,"RA_OF_ASC_NODE":331.9117,"ARG_OF_PERICENTER":171.6467,"MEAN_ANOMALY":188.482,"EPHEMERIS_TYPE":0,"CLASSIFICATION_TYPE":"U","NORAD_CAT_ID":35933,"ELEMENT_SET_NO":999,"REV_AT_EPOCH":87425,"BSTAR":0.00026698,"MEAN_MOTION_DOT":1.276e-5,"MEAN_MOTION_DDOT":0},{"OBJECT_NAME":"ITUPSAT1","OBJECT_ID":"2009-051E","EPOCH":"2026-03-07T03:32:21.900480","MEAN_MOTION":14.60260933,"ECCENTRICITY":0.0007091,"INCLINATION":98.4118,"RA_OF_ASC_NODE":331.3878,"ARG_OF_PERICENTER":186.103,"MEAN_ANOMALY":174.0084,"EPHEMERIS_TYPE":0,"CLASSIFICATION_TYPE":"U","NORAD_CAT_ID":35935,"ELEMENT_SET_NO":999,"REV_AT_EPOCH":87384,"BSTAR":0.00025199,"MEAN_MOTION_DOT":1.168e-5,"MEAN_MOTION_DDOT":0},{"OBJECT_NAME":"TISAT 1","OBJECT_ID":"2010-035E","EPOCH":"2026-03-07T01:42:40.688928","MEAN_MOTION":15.27464842,"ECCENTRICITY":9.24e-5,"INCLINATION":98.065,"RA_OF_ASC_NODE":3.9483,"ARG_OF_PERICENTER":164.7587,"MEAN_ANOMALY":195.3678,"EPHEMERIS_TYPE":0,"CLASSIFICATION_TYPE":"U","NORAD_CAT_ID":36799,"ELEMENT_SET_NO":999,"REV_AT_EPOCH":85209,"BSTAR":0.00096971,"MEAN_MOTION_DOT":0.00026045,"MEAN_MOTION_DDOT":0},{"OBJECT_NAME":"AEROCUBE 4.5A","OBJECT_ID":"2012-048K","EPOCH":"2026-03-07T03:53:45.790656","MEAN_MOTION":15.61445474,"ECCENTRICITY":0.0041234,"INCLINATION":64.6388,"RA_OF_ASC_NODE":28.8564,"ARG_OF_PERICENTER":212.6337,"MEAN_ANOMALY":147.226,"EPHEMERIS_TYPE":0,"CLASSIFICATION_TYPE":"U","NORAD_CAT_ID":38767,"ELEMENT_SET_NO":999,"REV_AT_EPOCH":35659,"BSTAR":0.001138,"MEAN_MOTION_DOT":0.00103063,"MEAN_MOTION_DDOT":0},{"OBJECT_NAME":"STRAND-1","OBJECT_ID":"2013-009E","EPOCH":"2026-03-06T23:43:03.292320","MEAN_MOTION":14.370918,"ECCENTRICITY":0.0008858,"INCLINATION":98.3885,"RA_OF_ASC_NODE":248.7472,"ARG_OF_PERICENTER":169.5759,"MEAN_ANOMALY":190.5613,"EPHEMERIS_TYPE":0,"CLASSIFICATION_TYPE":"U","NORAD_CAT_ID":39090,"ELEMENT_SET_NO":999,"REV_AT_EPOCH":68238,"BSTAR":0.00016441,"MEAN_MOTION_DOT":4.46e-6,"MEAN_MOTION_DDOT":0},{"OBJECT_NAME":"BRITE-AUSTRIA","OBJECT_ID":"2013-009F","EPOCH":"2026-03-07T00:39:24.884640","MEAN_MOTION":14.36494154,"ECCENTRICITY":0.001021,"INCLINATION":98.3952,"RA_OF_ASC_NODE":248.0015,"ARG_OF_PERICENTER":178.9457,"MEAN_ANOMALY":181.1753,"EPHEMERIS_TYPE":0,"CLASSIFICATION_TYPE":"U","NORAD_CAT_ID":39091,"ELEMENT_SET_NO":999,"REV_AT_EPOCH":68238,"BSTAR":0.00011483,"MEAN_MOTION_DOT":2.94e-6,"MEAN_MOTION_DDOT":0},{"OBJECT_NAME":"NEE-01 PEGASO","OBJECT_ID":"2013-018B","EPOCH":"2026-03-06T22:51:36.071712","MEAN_MOTION":14.93068309,"ECCENTRICITY":0.0013655,"INCLINATION":98.1051,"RA_OF_ASC_NODE":206.8606,"ARG_OF_PERICENTER":137.5248,"MEAN_ANOMALY":222.703,"EPHEMERIS_TYPE":0,"CLASSIFICATION_TYPE":"U","NORAD_CAT_ID":39151,"ELEMENT_SET_NO":999,"REV_AT_EPOCH":69544,"BSTAR":0.00040902,"MEAN_MOTION_DOT":4.206e-5,"MEAN_MOTION_DDOT":0},{"OBJECT_NAME":"POPACS 2","OBJECT_ID":"2013-055E","EPOCH":"2026-03-06T21:16:23.897280","MEAN_MOTION":14.87629889,"ECCENTRICITY":0.0431225,"INCLINATION":80.989,"RA_OF_ASC_NODE":261.0259,"ARG_OF_PERICENTER":161.7994,"MEAN_ANOMALY":199.9221,"EPHEMERIS_TYPE":0,"CLASSIFICATION_TYPE":"U","NORAD_CAT_ID":39269,"ELEMENT_SET_NO":999,"REV_AT_EPOCH":64798,"BSTAR":0.00052838,"MEAN_MOTION_DOT":0.00030289,"MEAN_MOTION_DDOT":0},{"OBJECT_NAME":"POPACS 3","OBJECT_ID":"2013-055F","EPOCH":"2026-03-07T01:33:49.938048","MEAN_MOTION":14.53867411,"ECCENTRICITY":0.0560794,"INCLINATION":81.0055,"RA_OF_ASC_NODE":339.7546,"ARG_OF_PERICENTER":20.6783,"MEAN_ANOMALY":341.6145,"EPHEMERIS_TYPE":0,"CLASSIFICATION_TYPE":"U","NORAD_CAT_ID":39270,"ELEMENT_SET_NO":999,"REV_AT_EPOCH":62370,"BSTAR":0.00043792,"MEAN_MOTION_DOT":0.00018181,"MEAN_MOTION_DDOT":0},{"OBJECT_NAME":"ZACUBE-1 (TSHEPISOSAT)","OBJECT_ID":"2013-066B","EPOCH":"2026-03-07T03:05:46.622976","MEAN_MOTION":15.00291692,"ECCENTRICITY":0.0042138,"INCLINATION":97.8183,"RA_OF_ASC_NODE":27.9406,"ARG_OF_PERICENTER":228.583,"MEAN_ANOMALY":131.1769,"EPHEMERIS_TYPE":0,"CLASSIFICATION_TYPE":"U","NORAD_CAT_ID":39417,"ELEMENT_SET_NO":999,"REV_AT_EPOCH":66542,"BSTAR":0.00043751,"MEAN_MOTION_DOT":5.523e-5,"MEAN_MOTION_DDOT":0}]
